CELESTIS-02             
1 25160U 98007D   22267.47352755 -.00000016  00000+0  50764-4 0  9998
2 25160 107.9902 106.1559 0064222 299.9672 123.7846 14.21646817276939
CELESTIS-03             
1 26034U 99070C   22267.56675601  .00020489  00000+0  90453-3 0  9991
2 26034  98.3110 283.5979 0011088 142.2485 217.9528 15.21740426236137
